STARLINK-5425           
1 54791U 22175AK  24189.44214308 -.00000298  00000+0 -64800-6 0  9997
2 54791  53.2169 248.5723 0001465  98.9911 261.1247 15.08839726 88006
STARLINK-5431           
1 54792U 22175AL  24189.48304882  .00003982  00000+0  26814-3 0  9990
2 54792  53.2171 263.0854 0001526  94.1693 265.9474 15.08838157 85648
STARLINK-5433           
1 54793U 22175AM  24189.37683394 -.00001034  00000+0 -46891-4 0  9993
2 54793  53.2170 238.9354 0001419  84.4586 275.6568 15.08833691 88135
STARLINK-5392           
1 54794U 22175AN  24189.46165081 -.00000276  00000+0  12360-5 0  9993
2 54794  53.2172 249.0971 0001223  84.9066 275.2067 15.12113484 88009
STARLINK-5436           
1 54795U 22175AP  24190.15972597  .00002898  00000+0  20011-3 0  9991
2 54795  53.2163 245.2341 0001521  88.5736 271.5431 15.08840887 85958
STARLINK-5415           
1 54796U 22175AQ  24189.48995487  .00000901  00000+0  74671-4 0  9994
2 54796  53.2156 248.1651 0001442  87.6140 272.5017 15.08845222 85856
STARLINK-5435           
1 54797U 22175AR  24189.43619448  .00000644  00000+0  58543-4 0  9994
2 54797  53.2184 263.5025 0001513  73.7957 286.3202 15.08831497 87798
STARLINK-5420           
1 54798U 22175AS  24189.42096204  .00003027  00000+0  20818-3 0  9994
2 54798  53.2153 238.4887 0001358  88.5233 271.5915 15.08840527 85980
STARLINK-5421           
1 54799U 22175AT  24189.43938810  .00000487  00000+0  48712-4 0  9995
2 54799  53.2169 238.6066 0001209  87.0742 273.0389 15.08837083 88149
STARLINK-5428           
1 54800U 22175AU  24189.49501992  .00000983  00000+0  79856-4 0  9995
2 54800  53.2182 253.1664 0001336  83.7414 276.3730 15.08839024 87943
STARLINK-5429           
1 54801U 22175AV  24189.47567628 -.00000291  00000+0 -18213-6 0  9998
2 54801  53.2181 263.0363 0001651 107.5845 252.5328 15.08842983 87804
STARLINK-5426           
1 54802U 22175AW  24189.33168111 -.00000307  00000+0 -11872-5 0  9999
2 54802  53.2157 208.5823 0001393  90.3545 269.7607 15.08838690 88555
STARLINK-5430           
1 54803U 22175AX  24189.48672482 -.00001185  00000+0 -56367-4 0  9999
2 54803  53.2178 263.0940 0001400  93.8221 266.2931 15.08846165 85648
STARLINK-5422           
1 54804U 22175AY  24189.40160992 -.00000399  00000+0 -69580-5 0  9998
2 54804  53.2165 248.3301 0001160  89.6284 270.4841 15.08840809 88006
STARLINK-5417           
1 54805U 22175AZ  24189.48627091  .00001316  00000+0  10073-3 0  9994
2 54805  53.2170 248.1422 0001359  91.0267 269.0881 15.08843836 88015
STARLINK-5412           
1 54806U 22175BA  24189.47522133  .00001876  00000+0  13594-3 0  9997
2 54806  53.2158 248.0764 0001387  90.9010 269.2141 15.08840560 88017
STARLINK-5410           
1 54807U 22175BB  24189.47890452 -.00000131  00000+0  98725-5 0  9995
2 54807  53.2175 248.0994 0001697  97.8882 262.2303 15.08842025 85859
STARLINK-5413           
1 54808U 22175BC  24189.38651112 -.00000517  00000+0 -14398-4 0  9996
2 54808  53.2165 234.0490 0001342  95.4746 264.6400 15.08839668 86040
STARLINK-5414           
1 54809U 22175BD  24189.47153253 -.00000301  00000+0 -84845-6 0  9997
2 54809  53.2166 248.0515 0001351  86.6587 273.4560 15.08841730 88017
STARLINK-5408           
1 54810U 22175BE  24189.42601668 -.00000057  00000+0  14506-4 0  9994
2 54810  53.2166 243.4676 0001443  96.6067 263.5089 15.08843781 88072
STARLINK-5424           
1 54811U 22175BF  24189.38654232  .00011466  00000+0  73686-3 0  9993
2 54811  53.2185 243.9248 0001361  91.3825 268.7323 15.08864624 85903
STARLINK-5382           
1 54820U 22177A   24189.43293077 -.00000029  00000+0  12921-4 0  9997
2 54820  43.0022 209.5774 0001105 271.6358  88.4357 15.02530462 85157
STARLINK-5385           
1 54821U 22177B   24190.08549597  .00001268  00000+0  10890-3 0  9999
2 54821  43.0021 205.8767 0001309 279.8975  80.1719 15.02535506 84276
STARLINK-5101           
1 54822U 22177C   24190.08105565  .00000915  00000+0  82783-4 0  9992
2 54822  43.0033 205.8407 0001115 273.9427  86.1288 15.02537538 84277
STARLINK-5106           
1 54823U 22177D   24189.42959851  .00000204  00000+0  30146-4 0  9991
2 54823  43.0019 209.5523 0001090 280.4571  79.6149 15.02533985 85150
STARLINK-4643           
1 54824U 22177E   24189.35979368 -.00000505  00000+0 -22342-4 0  9994
2 54824  43.0018 209.8888 0001178 269.4972  90.5736 15.02532942 85141
STARLINK-4801           
1 54825U 22177F   24190.08438642 -.00000001  00000+0  14997-4 0  9999
2 54825  43.0035 205.8627 0001364 273.3054  86.7632 15.02534785 84272
STARLINK-5107           
1 54826U 22177G   24190.08217139  .00001054  00000+0  93115-4 0  9993
2 54826  43.0038 205.8488 0001239 268.7112  91.3589 15.02535066 84271
STARLINK-5383           
1 54827U 22177H   24189.34314005  .00000813  00000+0  75256-4 0  9999
2 54827  43.0004 209.7623 0001260 279.5534  80.5166 15.02539338 85156
STARLINK-5381           
1 54828U 22177J   24189.33981548 -.00000080  00000+0  91470-5 0  9995
2 54828  43.0030 209.7388 0001308 265.2440  94.8252 15.02534610 85146
