OBJECT_NAME,OBJECT_ID,EPOCH,MEAN_MOTION,ECCENTRICITY,INCLINATION,RA_OF_ASC_NODE,ARG_OF_PERICENTER,MEAN_ANOMALY,EPHEMERIS_TYPE,CLASSIFICATION_TYPE,NORAD_CAT_ID,ELEMENT_SET_NO,REV_AT_EPOCH,BSTAR,MEAN_MOTION_DOT,MEAN_MOTION_DDOT
STARLINK-5425,2022-175AK,2024-07-07T10:36:41.162112,15.08839726,.0001465,53.2169,248.5723,98.9911,261.1247,0,U,54791,999,8800,-.648E-6,-.298E-5,0
STARLINK-5431,2022-175AL,2024-07-07T11:35:35.418048,15.08838157,.0001526,53.2171,263.0854,94.1693,265.9474,0,U,54792,999,8564,.26814E-3,.3982E-4,0
STARLINK-5433,2022-175AM,2024-07-07T09:02:38.452416,15.08833691,.0001419,53.2170,238.9354,84.4586,275.6568,0,U,54793,999,8813,-.46891E-4,-.1034E-4,0
STARLINK-5392,2022-175AN,2024-07-07T11:04:46.629984,15.12113484,.0001223,53.2172,249.0971,84.9066,275.2067,0,U,54794,999,8800,.1236E-5,-.276E-5,0
STARLINK-5436,2022-175AP,2024-07-08T03:50:00.323808,15.08840887,.0001521,53.2163,245.2341,88.5736,271.5431,0,U,54795,999,8595,.20011E-3,.2898E-4,0
STARLINK-5415,2022-175AQ,2024-07-07T11:45:32.100768,15.08845222,.0001442,53.2156,248.1651,87.6140,272.5017,0,U,54796,999,8585,.74671E-4,.901E-5,0
STARLINK-5435,2022-175AR,2024-07-07T10:28:07.203072,15.08831497,.0001513,53.2184,263.5025,73.7957,286.3202,0,U,54797,999,8779,.58543E-4,.644E-5,0
STARLINK-5420,2022-175AS,2024-07-07T10:06:11.120256,15.08840527,.0001358,53.2153,238.4887,88.5233,271.5915,0,U,54798,999,8598,.20818E-3,.3027E-4,0
STARLINK-5421,2022-175AT,2024-07-07T10:32:43.131840,15.08837083,.0001209,53.2169,238.6066,87.0742,273.0389,0,U,54799,999,8814,.48712E-4,.487E-5,0
STARLINK-5428,2022-175AU,2024-07-07T11:52:49.721088,15.08839024,.0001336,53.2182,253.1664,83.7414,276.3730,0,U,54800,999,8794,.79856E-4,.983E-5,0
STARLINK-5429,2022-175AV,2024-07-07T11:24:58.430592,15.08842983,.0001651,53.2181,263.0363,107.5845,252.5328,0,U,54801,999,8780,-.18213E-6,-.291E-5,0
STARLINK-5426,2022-175AW,2024-07-07T07:57:37.247904,15.08838690,.0001393,53.2157,208.5823,90.3545,269.7607,0,U,54802,999,8855,-.11872E-5,-.307E-5,0
STARLINK-5430,2022-175AX,2024-07-07T11:40:53.024448,15.08846165,.00014,53.2178,263.0940,93.8221,266.2931,0,U,54803,999,8564,-.56367E-4,-.1185E-4,0
STARLINK-5422,2022-175AY,2024-07-07T09:38:19.097088,15.08840809,.000116,53.2165,248.3301,89.6284,270.4841,0,U,54804,999,8800,-.6958E-5,-.399E-5,0
STARLINK-5417,2022-175AZ,2024-07-07T11:40:13.806624,15.08843836,.0001359,53.2170,248.1422,91.0267,269.0881,0,U,54805,999,8801,.10073E-3,.1316E-4,0
STARLINK-5412,2022-175BA,2024-07-07T11:24:19.122912,15.08840560,.0001387,53.2158,248.0764,90.9010,269.2141,0,U,54806,999,8801,.13594E-3,.1876E-4,0
STARLINK-5410,2022-175BB,2024-07-07T11:29:37.350528,15.08842025,.0001697,53.2175,248.0994,97.8882,262.2303,0,U,54807,999,8585,.98725E-5,-.131E-5,0
STARLINK-5413,2022-175BC,2024-07-07T09:16:34.560768,15.08839668,.0001342,53.2165,234.0490,95.4746,264.6400,0,U,54808,999,8604,-.14398E-4,-.517E-5,0
STARLINK-5414,2022-175BD,2024-07-07T11:19:00.410592,15.08841730,.0001351,53.2166,248.0515,86.6587,273.4560,0,U,54809,999,8801,-.84845E-6,-.301E-5,0
STARLINK-5408,2022-175BE,2024-07-07T10:13:27.841152,15.08843781,.0001443,53.2166,243.4676,96.6067,263.5089,0,U,54810,999,8807,.14506E-4,-.57E-6,0
STARLINK-5424,2022-175BF,2024-07-07T09:16:37.256448,15.08864624,.0001361,53.2185,243.9248,91.3825,268.7323,0,U,54811,999,8590,.73686E-3,.11466E-3,0
STARLINK-5382,2022-177A,2024-07-07T10:23:25.218528,15.02530462,.0001105,43.0022,209.5774,271.6358,88.4357,0,U,54820,999,8515,.12921E-4,-.29E-6,0
STARLINK-5385,2022-177B,2024-07-08T02:03:06.851808,15.02535506,.0001309,43.0021,205.8767,279.8975,80.1719,0,U,54821,999,8427,.1089E-3,.1268E-4,0
STARLINK-5101,2022-177C,2024-07-08T01:56:43.208160,15.02537538,.0001115,43.0033,205.8407,273.9427,86.1288,0,U,54822,999,8427,.82783E-4,.915E-5,0
STARLINK-5106,2022-177D,2024-07-07T10:18:37.311264,15.02533985,.000109,43.0019,209.5523,280.4571,79.6149,0,U,54823,999,8515,.30146E-4,.204E-5,0
STARLINK-4643,2022-177E,2024-07-07T08:38:06.173952,15.02532942,.0001178,43.0018,209.8888,269.4972,90.5736,0,U,54824,999,8514,-.22342E-4,-.505E-5,0
STARLINK-4801,2022-177F,2024-07-08T02:01:30.986688,15.02534785,.0001364,43.0035,205.8627,273.3054,86.7632,0,U,54825,999,8427,.14997E-4,-.1E-7,0
STARLINK-5107,2022-177G,2024-07-08T01:58:19.608096,15.02535066,.0001239,43.0038,205.8488,268.7112,91.3589,0,U,54826,999,8427,.93115E-4,.1054E-4,0
STARLINK-5383,2022-177H,2024-07-07T08:14:07.300320,15.02539338,.000126,43.0004,209.7623,279.5534,80.5166,0,U,54827,999,8515,.75256E-4,.813E-5,0
STARLINK-5381,2022-177J,2024-07-07T08:09:20.057472,15.02534610,.0001308,43.0030,209.7388,265.2440,94.8252,0,U,54828,999,8514,.9147E-5,-.8E-6,0
